     2.10           N: GPS NAV DATA                         RINEX VERSION / TYPE
teqc  2008Oct2      gpsops              20090129 00:05:50UTCPGM / RUN BY / DATE
Linux 2.4.20-8|Pentium IV|gcc -static|Linux|486/DX+         COMMENT
soc2rnx ver 1.20    gpsops              29-Jan-2009 00:05:44COMMENT
Forced Modulo Decimation to 30 seconds                      COMMENT
MADR                                    MARKER NAME         COMMENT
13407S012                               MARKER NUMBER       COMMENT
4849202.3940 -360328.9929 4114913.1862                      COMMENT
                                                            COMMENT
This data is provided as a public service by NASA/JPL.      COMMENT
No warranty is expressed or implied regarding suitability   COMMENT
for use.  For further information, contact:                 COMMENT
Dave Stowers, NASA/JPL m/s 238-600                          COMMENT
4800 Oak Grove Drive, Pasadena CA 91109 USA                 COMMENT
                                                            END OF HEADER
31 09  1 28  4  0  0.0-4.937965422869D-05-1.477928890381D-12 0.000000000000D+00
    5.200000000000D+01 3.281250000000D+01 4.625192657839D-09 2.539488275697D+00
    1.933425664902D-06 7.168136886321D-03 1.328065991402D-06 5.153629928589D+03
    2.736000000000D+05 1.564621925354D-07-1.409897412046D+00-9.313225746155D-09
    9.708920840667D-01 3.560312500000D+02-1.200882243920D+00-8.307488897401D-09
    8.928943354902D-12 1.000000000000D+00 1.516000000000D+03 0.000000000000D+00
    2.800000000000D+00 0.000000000000D+00-1.303851604462D-08 5.200000000000D+01
    2.708700000000D+05
24 09  1 28  4  0  0.0 1.609846949577D-04 2.955857780762D-12 0.000000000000D+00
    1.120000000000D+02 1.953125000000D+01 5.251290165885D-09 3.063358635697D-01
    1.071020960808D-06 6.986341322772D-03 4.293397068977D-06 5.153659786224D+03
    2.736000000000D+05-1.303851604462D-08 1.785140652399D+00-9.313225746155D-08
    9.508367909003D-01 2.893125000000D+02-6.404078727241D-01-8.547856052515D-09
    2.467959943295D-10 1.000000000000D+00 1.516000000000D+03 0.000000000000D+00
    2.800000000000D+00 0.000000000000D+00-1.396983861923D-09 1.120000000000D+02
    2.718600000000D+05
 5 09  1 28  6  0  0.0-6.053047254682D-04-4.877165338257D-11 0.000000000000D+00
    3.000000000000D+00-1.170000000000D+02 4.879131806853D-09 1.632291595063D+00
   -6.265938282013D-06 9.380072937347D-03 5.593523383141D-06 5.153635196686D+03
    2.808000000000D+05-7.450580596924D-08-4.547071364002D-01-2.011656761169D-07
    9.452268277600D-01 2.643125000000D+02 1.296940503966D+00-8.416422006331D-09
   -3.871589838686D-10 1.000000000000D+00 1.516000000000D+03 0.000000000000D+00
    2.000000000000D+00 0.000000000000D+00-4.190951585770D-09 3.000000000000D+00
    2.736000000000D+05
 2 09  1 28  6  0  0.0 1.596370711923D-04-1.591615728103D-12 0.000000000000D+00
    4.100000000000D+01 1.956250000000D+01 5.382367054335D-09-8.034582615930D-01
    1.005828380585D-06 8.939512423240D-03 4.632398486137D-06 5.153597431183D+03
    2.808000000000D+05-6.705522537231D-08 1.722471987781D+00-2.421438694000D-07
    9.414264781916D-01 2.821250000000D+02 2.707328741120D+00-8.534998374084D-09
    3.142988060926D-10 1.000000000000D+00 1.516000000000D+03 0.000000000000D+00
    2.000000000000D+00 0.000000000000D+00-1.722946763039D-08 4.100000000000D+01
    2.736000000000D+05
 9 09  1 28  6  0  0.0 3.736000508070D-05 2.046363078989D-12 0.000000000000D+00
    2.500000000000D+01 5.071875000000D+01 4.498758819934D-09 2.730643645446D+00
    2.469867467880D-06 2.016336400993D-02 1.743435859680D-06 5.153649482727D+03
    2.808000000000D+05 1.937150955200D-07-1.442173450324D+00-2.160668373108D-07
    9.744376825436D-01 3.477187500000D+02 1.459184637720D+00-8.036049019412D-09
    1.071473202588D-10 1.000000000000D+00 1.516000000000D+03 0.000000000000D+00
    2.000000000000D+00 0.000000000000D+00-5.587935447693D-09 2.500000000000D+01
    2.736000000000D+05
12 09  1 28  6  0  0.0-3.215689212084D-04 3.524291969370D-12 0.000000000000D+00
    1.700000000000D+01-1.155000000000D+02 4.335894893140D-09-2.420511086677D+00
   -5.979090929031D-06 3.159380401485D-03 6.955116987228D-06 5.153734354019D+03
    2.808000000000D+05 7.450580596924D-09-3.557134770998D-01 7.450580596924D-08
    9.662505039376D-01 2.459687500000D+02-8.230442111407D-01-8.052478275185D-09
   -3.989451890970D-10 1.000000000000D+00 1.516000000000D+03 0.000000000000D+00
    2.000000000000D+00 0.000000000000D+00-1.164153218269D-08 1.700000000000D+01
    2.736000000000D+05
14 09  1 28  5 59 44.0-1.622266136110D-04 5.229594535194D-12 0.000000000000D+00
    3.000000000000D+01 8.746875000000D+01 3.793015137162D-09-5.317432365087D-01
    4.600733518600D-06 4.419465200044D-03 1.048482954502D-05 5.153571874619D+03
    2.807840000000D+05-4.284083843231D-08-2.419533915917D+00 5.401670932770D-08
    9.890103303301D-01 1.942812500000D+02-2.100538600047D+00-7.702106537939D-09
    1.735786588193D-10 1.000000000000D+00 1.516000000000D+03 0.000000000000D+00
    2.000000000000D+00 0.000000000000D+00-9.313225746155D-09 3.000000000000D+01
    2.736000000000D+05
24 09  1 28  6  0  0.0 1.610056497157D-04 2.955857780762D-12 0.000000000000D+00
    1.820000000000D+02 2.028125000000D+01 5.106998441270D-09 1.356574148998D+00
    1.061707735062D-06 6.985850166529D-03 4.639849066734D-06 5.153658729553D+03
    2.808000000000D+05 1.508742570877D-07 1.785080233883D+00 6.705522537231D-08
    9.508394183012D-01 2.847187500000D+02-6.404516490848D-01-8.321060891300D-09
    2.010798043524D-10 1.000000000000D+00 1.516000000000D+03 0.000000000000D+00
    2.800000000000D+00 0.000000000000D+00-1.396983861923D-09 1.820000000000D+02
    2.736000000000D+05
29 09  1 28  6  0  0.0-1.479405909777D-05 3.069544618484D-12 0.000000000000D+00
    9.200000000000D+01-2.718750000000D+00 4.262677557630D-09 2.792842959131D+00
   -2.551823854446D-07 3.244757885113D-03 1.142360270023D-05 5.153754741669D+03
    2.808000000000D+05 2.980232238770D-08 7.106220332658D-01 2.235174179077D-08
    9.600266082074D-01 1.578125000000D+02-1.344796559809D+00-7.727821894801D-09
    3.835874065266D-10 1.000000000000D+00 1.516000000000D+03 0.000000000000D+00
    2.000000000000D+00 0.000000000000D+00-8.847564458847D-09 9.200000000000D+01
    2.736000000000D+05
30 09  1 28  6  0  0.0 1.226090826094D-04 2.387423592154D-12 0.000000000000D+00
    6.200000000000D+01-1.157187500000D+02 4.806628786811D-09 1.096293142404D+00
   -6.156042218208D-06 1.116235461086D-02 6.381422281265D-06 5.153652557373D+03
    2.808000000000D+05-1.508742570877D-07-4.015246660512D-01-1.061707735062D-07
    9.511927890891D-01 2.541875000000D+02 1.415153657687D+00-8.459280934434D-09
   -4.153744448700D-10 1.000000000000D+00 1.516000000000D+03 0.000000000000D+00
    2.000000000000D+00 0.000000000000D+00-7.916241884232D-09 6.200000000000D+01
    2.736000000000D+05
31 09  1 28  6  0  0.0-4.939036443830D-05-1.477928890381D-12 0.000000000000D+00
    1.030000000000D+02 3.496875000000D+01 4.640907598144D-09-2.693528089834D+00
    1.966953277588D-06 7.167880074121D-03 1.726672053337D-06 5.153630449295D+03
    2.808000000000D+05 1.490116119385D-08-1.409957884691D+00 1.303851604462D-07
    9.708928667278D-01 3.522187500000D+02-1.200842680763D+00-8.257129656879D-09
    1.610781381224D-10 1.000000000000D+00 1.516000000000D+03 0.000000000000D+00
    2.800000000000D+00 0.000000000000D+00-1.303851604462D-08 1.030000000000D+02
    2.736000000000D+05
24 09  1 28  5 59 44.0 1.610014587641D-04 2.955857780762D-12 0.000000000000D+00
    2.700000000000D+01 2.028125000000D+01 5.106998441270D-09 1.354240380656D+00
    1.061707735062D-06 6.985838874243D-03 4.639849066734D-06 5.153658714294D+03
    2.807840000000D+05 1.508742570877D-07 1.785080368471D+00 6.705522537231D-08
    9.508394124495D-01 2.847187500000D+02-6.404515261996D-01-8.321060891300D-09
    2.010798043524D-10 1.000000000000D+00 1.516000000000D+03 0.000000000000D+00
    2.000000000000D+00 0.000000000000D+00-1.396983861923D-09 2.700000000000D+01
    2.751000000000D+05
21 09  1 28  5 59 44.0 3.180699422956D-05-1.818989403546D-12 0.000000000000D+00
    2.000000000000D+01 2.493750000000D+01 5.448084077427D-09 2.732056910622D+00
    1.214444637299D-06 1.458648662083D-02 4.649162292480D-06 5.153640398026D+03
    2.807840000000D+05-1.583248376846D-07 1.754953377332D+00-1.918524503708D-07
    9.341953428829D-01 2.768750000000D+02-2.651399058373D+00-8.359633926594D-09
    2.614394614315D-10 1.000000000000D+00 1.516000000000D+03 0.000000000000D+00
    2.000000000000D+00 0.000000000000D+00-1.164153218269D-08 2.000000000000D+01
    2.752200000000D+05
16 09  1 28  6  0  0.0 7.886299863458D-05-2.728484105319D-12 0.000000000000D+00
    7.400000000000D+01-1.123125000000D+02 4.294821753708D-09 1.337295165014D+00
   -5.701556801796D-06 4.996258998290D-03 7.038936018944D-06 5.153759515762D+03
    2.808000000000D+05 4.842877388000D-08-3.389580838562D-01 3.352761268616D-08
    9.677920538637D-01 2.434375000000D+02-3.882225362841D-01-8.035691861678D-09
   -4.168030758068D-10 1.000000000000D+00 1.516000000000D+03 0.000000000000D+00
    2.000000000000D+00 0.000000000000D+00-9.778887033463D-09 7.400000000000D+01
    2.771400000000D+05
 6 09  1 28  6  0  0.0 7.769232615829D-05-1.318767317571D-11 0.000000000000D+00
    4.100000000000D+01-9.187500000000D+00 4.847344768509D-09 1.370791582720D+00
   -6.575137376785D-07 5.673565203324D-03 1.115910708904D-05 5.153719501495D+03
    2.808000000000D+05 3.725290298462D-09 6.424805072634D-01-1.564621925354D-07
    9.338921311672D-01 1.508437500000D+02-1.471113409253D+00-8.155696860368D-09
    3.060841782060D-10 1.000000000000D+00 1.516000000000D+03 0.000000000000D+00
    2.000000000000D+00 0.000000000000D+00-4.656612873077D-09 4.100000000000D+01
    2.805600000000D+05
